NORAD_CAT_ID,OBJECT_NAME,OBJECT_TYPE,EPOCH,MEAN_MOTION,ECCENTRICITY,INCLINATION,RA_OF_ASC_NODE,ARG_OF_PERICENTER,MEAN_ANOMALY,BSTAR,MEAN_MOTION_DOT,MEAN_MOTION_DDOT,TLE_LINE0,TLE_LINE1,TLE_LINE2,SEMIMAJOR_AXIS,PERIOD,APOGEE,PERIGEE,DECAYED
49432.0,STARLINK-3158,PAYLOAD,2022-11-21 20:26:53,15.08842466,0.0003526,53.2163,223.3531,24.7991,335.31699999999995,9.7482e-05,1.263e-05,0.0,0 STARLINK-3158,1 49432U 21104AA  22325.85201271  .00001263  00000-0  97482-4 0  9996,2 49432  53.2163 223.3531 0003526  24.7991 335.3170 15.08842466 57032,6917.873000000001,95.437,542.177,537.299,0.0
49432.0,STARLINK-3158,PAYLOAD,2022-11-22 10:45:21,15.08850118,0.0003594,53.2163,220.6768,25.6477,334.4693,0.00012871,1.761e-05,0.0,0 STARLINK-3158,1 49432U 21104AA  22326.44816599  .00001761  00000-0  12871-3 0  9998,2 49432  53.2163 220.6768 0003594  25.6477 334.4693 15.08850118 57121,6917.849,95.437,542.201,537.2280000000002,0.0
49432.0,STARLINK-3158,PAYLOAD,2022-11-22 20:17:40,15.08837932,0.000356,53.217,218.8935,25.3048,334.8118,0.00011715,1.576e-05,0.0,0 STARLINK-3158,1 49432U 21104AA  22326.84561292  .00001576  00000-0  11715-3 0  9999,2 49432  53.2170 218.8935 0003560  25.3048 334.8118 15.08837932 57189,6917.887,95.438,542.214,537.289,0.0
49432.0,STARLINK-3158,PAYLOAD,2022-11-23 02:39:13,15.08841239,0.0003523,53.2167,217.704,29.4456,330.6734,8.4639e-05,1.059e-05,0.0,0 STARLINK-3158,1 49432U 21104AA  22327.11057131  .00001059  00000-0  84639-4 0  9994,2 49432  53.2167 217.7040 0003523  29.4456 330.6734 15.08841239 58305,6917.877,95.437,542.179,537.304,0.0
49432.0,STARLINK-3158,PAYLOAD,2022-11-24 02:30:01,15.08834639,0.000371,53.2162,213.2427,27.6674,332.4515,-6.062e-07,-2.99e-06,0.0,0 STARLINK-3158,1 49432U 21104AA  22328.10417946 -.00000299  00000-0 -60620-6 0  9991,2 49432  53.2162 213.2427 0003710  27.6674 332.4515 15.08834639 58459,6917.897,95.438,542.328,537.195,0.0
49432.0,STARLINK-3158,PAYLOAD,2022-11-25 08:42:20,15.08836374,0.0003802,53.2159,207.5923,28.3319,331.788,1.7237e-05,-1.5e-07,0.0,0 STARLINK-3158,1 49432U 21104AA  22329.36274128 -.00000015  00000-0  17237-4 0  9992,2 49432  53.2159 207.5923 0003802  28.3319 331.7880 15.08836374 58644,6917.891,95.438,542.387,537.126,0.0
49432.0,STARLINK-3158,PAYLOAD,2022-11-25 19:50:02,15.0884032,0.0003764,53.2157,205.5115,28.2915,331.8280000000001,9.5835e-05,1.237e-05,0.0,0 STARLINK-3158,1 49432U 21104AA  22329.82641848  .00001237  00000-0  95835-4 0  9996,2 49432  53.2157 205.5115 0003764  28.2915 331.8280 15.08840320 57630,6917.879,95.438,542.3480000000002,537.141,0.0
49432.0,STARLINK-3158,PAYLOAD,2022-11-25 23:00:48,15.08842995,0.0003775,53.2161,204.9168,29.0196,331.1006,0.00011703,1.574e-05,0.0,0 STARLINK-3158,1 49432U 21104AA  22329.95889655  .00001574  00000-0  11703-3 0  9995,2 49432  53.2161 204.9168 0003775  29.0196 331.1006 15.08842995 58739,6917.871,95.437,542.3480000000002,537.125,0.0
49432.0,STARLINK-3158,PAYLOAD,2022-11-26 08:33:06,15.08850114,0.0003804,53.2161,203.1324,29.4785,330.6421,0.00016656,2.364e-05,0.0,0 STARLINK-3158,1 49432U 21104AA  22330.35632974  .00002364  00000-0  16656-3 0  9991,2 49432  53.2161 203.1324 0003804  29.4785 330.6421 15.08850114 58798,6917.849,95.437,542.346,537.0830000000002,0.0
49432.0,STARLINK-3158,PAYLOAD,2022-11-26 16:30:02,15.08850466,0.0003642,53.2177,201.6456,32.6938,327.4279,9.8075e-05,1.273e-05,0.0,0 STARLINK-3158,1 49432U 21104AA  22330.68753309  .00001273  00000-0  98075-4 0  9997,2 49432  53.2177 201.6456 0003642  32.6938 327.4279 15.08850466 57761,6917.848000000001,95.437,542.2330000000002,537.194,0.0
49432.0,STARLINK-3158,PAYLOAD,2022-11-27 00:26:58,15.08847392,0.0003746,53.2165,200.1584,30.242,329.8788,5.0623e-05,5.17e-06,0.0,0 STARLINK-3158,1 49432U 21104AA  22331.01873452  .00000517  00000-0  50623-4 0  9994,2 49432  53.2165 200.1584 0003746  30.2420 329.8788 15.08847392 58899,6917.858,95.437,542.314,537.131,0.0
49432.0,STARLINK-3158,PAYLOAD,2022-11-27 16:20:50,15.08836846,0.000379,53.2165,197.1849,32.2019,327.9204,-5.0059e-05,-1.086e-05,0.0,0 STARLINK-3158,1 49432U 21104AA  22331.68114221 -.00001086  00000-0 -50059-4 0  9996,2 49432  53.2165 197.1849 0003790  32.2019 327.9204 15.08836846 58998,6917.89,95.438,542.377,537.133,0.0
49432.0,STARLINK-3158,PAYLOAD,2022-11-28 08:14:41,15.08845392,0.0003821,53.2163,194.2114,32.4589,327.6638,-1.3057e-05,-4.97e-06,0.0,0 STARLINK-3158,1 49432U 21104AA  22332.34353560 -.00000497  00000-0 -13057-4 0  9993,2 49432  53.2163 194.2114 0003821  32.4589 327.6638 15.08845392 59094,6917.864000000001,95.437,542.372,537.086,0.0
49432.0,STARLINK-3158,PAYLOAD,2022-11-28 20:57:47,15.08833683,0.0003822,53.2158,191.8321,32.7994,327.3234,-4.8986e-05,-1.069e-05,0.0,0 STARLINK-3158,1 49432U 21104AA  22332.87346359 -.00001069  00000-0 -48986-4 0  9994,2 49432  53.2158 191.8321 0003822  32.7994 327.3234 15.08833683 59173,6917.9,95.438,542.409,537.121,0.0
49432.0,STARLINK-3158,PAYLOAD,2022-11-29 01:43:56,15.08831374,0.0003797,53.2158,190.9402,32.7951,327.3276,-3.4272e-05,-8.34e-06,0.0,0 STARLINK-3158,1 49432U 21104AA  22333.07218558 -.00000834  00000-0 -34272-4 0  9998,2 49432  53.2158 190.9402 0003797  32.7951 327.3276 15.08831374 58122,6917.906999999997,95.438,542.398,537.145,0.0
49432.0,STARLINK-3158,PAYLOAD,2022-11-29 17:37:48,15.088332,0.0003802,53.2157,187.9663,33.6978,326.4255,3.6988e-05,3e-06,0.0,0 STARLINK-3158,1 49432U 21104AA  22333.73458579  .00000300  00000-0  36988-4 0  9992,2 49432  53.2157 187.9663 0003802  33.6978 326.4255 15.08833200 58220,6917.901,95.438,542.396,537.136,0.0
49432.0,STARLINK-3158,PAYLOAD,2022-11-30 07:56:16,15.0883934,0.0003855,53.2156,185.2903,35.1445,324.9801,5.968100000000003e-05,6.61e-06,0.0,0 STARLINK-3158,1 49432U 21104AA  22334.33074296  .00000661  00000-0  59681-4 0  9994,2 49432  53.2156 185.2903 0003855  35.1445 324.9801 15.08839340 59391,6917.882,95.438,542.414,537.081,0.0
49432.0,STARLINK-3158,PAYLOAD,2022-11-30 14:17:48,15.08838557,0.0003948,53.2157,184.1015,34.0604,326.0641,7.4744e-05,9.01e-06,0.0,0 STARLINK-3158,1 49432U 21104AA  22334.59570329  .00000901  00000-0  74744-4 0  9994,2 49432  53.2157 184.1015 0003948  34.0604 326.0641 15.08838557 58351,6917.885,95.438,542.481,537.019,0.0
49432.0,STARLINK-3158,PAYLOAD,2022-11-30 23:50:07,15.08840424,0.0003927,53.2154,182.3168,36.6828,323.4432,0.00015615,2.197e-05,0.0,0 STARLINK-3158,1 49432U 21104AA  22334.99313997  .00002197  00000-0  15615-3 0  9994,2 49432  53.2154 182.3168 0003927  36.6828 323.4432 15.08840424 58412,6917.879,95.438,542.461,537.0269999999998,0.0
49432.0,STARLINK-3158,PAYLOAD,2022-12-01 20:30:08,15.08836525,0.0003975,53.2155,178.4508,39.5278,320.6004,2.9183e-05,1.75e-06,0.0,0 STARLINK-3158,1 49432U 21104AA  22335.85426844  .00000175  00000-0  29183-4 0  9996,2 49432  53.2155 178.4508 0003975  39.5278 320.6004 15.08836525 59626,6917.891,95.438,542.506,537.006,0.0
49432.0,STARLINK-3158,PAYLOAD,2022-12-02 06:02:27,15.08838558,0.0004008999999999,53.2156,176.6666,40.1998,319.9290000000001,3.3278e-05,2.41e-06,0.0,0 STARLINK-3158,1 49432U 21104AA  22336.25170760  .00000241  00000-0  33278-4 0  9998,2 49432  53.2156 176.6666 0004009  40.1998 319.9290 15.08838558 58601,6917.885,95.438,542.523,536.976,0.0
49432.0,STARLINK-3158,PAYLOAD,2022-12-02 20:20:55,15.08842765,0.0004016,53.2156,173.99,41.4342,318.6954,2.9853e-05,1.86e-06,0.0,0 STARLINK-3158,1 49432U 21104AA  22336.84786431  .00000186  00000-0  29853-4 0  9993,2 49432  53.2156 173.9900 0004016  41.4342 318.6954 15.08842765 58694,6917.871999999999,95.437,542.515,536.9590000000002,0.0
49432.0,STARLINK-3158,PAYLOAD,2022-12-03 05:53:14,15.08836069,0.0003676,53.2151,172.2066,33.8488,326.2738,-8.688200000000001e-06,-4.27e-06,0.0,0 STARLINK-3158,1 49432U 21104AA  22337.24531040 -.00000427  00000-0 -86882-5 0  9998,2 49432  53.2151 172.2066 0003676  33.8488 326.2738 15.08836069 59833,6917.892,95.438,542.3,537.214,0.0
49432.0,STARLINK-3158,PAYLOAD,2022-12-03 13:50:11,15.08825269,0.0003895,53.2164,170.7199,35.686,324.4392,-2.5419e-05,-6.93e-06,0.0,0 STARLINK-3158,1 49432U 21104AA  22337.57652010 -.00000693  00000-0 -25419-4 0  9998,2 49432  53.2164 170.7199 0003895  35.6860 324.4392 15.08825269 59885,6917.925,95.438,542.485,537.096,0.0
49432.0,STARLINK-3158,PAYLOAD,2022-12-03 20:11:43,15.08828553,0.000392,53.2154,169.5298,40.4815,319.6468,-1.0564e-05,-4.57e-06,0.0,0 STARLINK-3158,1 49432U 21104AA  22337.84147962 -.00000457  00000-0 -10564-4 0  9996,2 49432  53.2154 169.5298 0003920  40.4815 319.6468 15.08828553 58847,6917.915,95.438,542.492,537.069,0.0
49432.0,STARLINK-3158,PAYLOAD,2022-12-04 05:44:02,15.08832115,0.0003974,53.2153,167.7457,41.4657,318.6636,1.1485e-05,-1.06e-06,0.0,0 STARLINK-3158,1 49432U 21104AA  22338.23891924 -.00000106  00000-0  11485-4 0  9997,2 49432  53.2153 167.7457 0003974  41.4657 318.6636 15.08832115 59988,6917.904,95.438,542.519,537.02,0.0
49432.0,STARLINK-3158,PAYLOAD,2022-12-04 12:05:35,15.08831556,0.0003966,53.2158,166.5558,42.5227,317.6071,1.0089e-06,-2.73e-06,0.0,0 STARLINK-3158,1 49432U 21104AA  22338.50388142 -.00000273  00000-0  10089-5 0  9995,2 49432  53.2158 166.5558 0003966  42.5227 317.6071 15.08831556 58943,6917.906,95.438,542.515,537.028,0.0
49432.0,STARLINK-3158,PAYLOAD,2022-12-04 20:02:30,15.0885762,0.0004126,53.216,165.0693,44.1629,315.9692,-0.00028214,-4.78e-05,0.0,0 STARLINK-3158,1 49432U 21104AA  22338.83507622 -.00004780  00000-0 -28214-3 0  9992,2 49432  53.2160 165.0693 0004126  44.1629 315.9692 15.08857620 60070,6917.8269999999975,95.436,542.5459999999998,536.837,0.0
49432.0,STARLINK-3158,PAYLOAD,2022-12-05 11:56:22,15.08833841,0.0004004,53.2162,162.0955,44.8312,315.3004,0.00011405,1.526e-05,0.0,0 STARLINK-3158,1 49432U 21104AA  22339.49748247  .00001526  00000-0  11405-3 0  9992,2 49432  53.2162 162.0955 0004004  44.8312 315.3004 15.08833841 59091,6917.899,95.438,542.534,536.994,0.0
